[{"OBJECT_NAME":"KUIPER-00028","OBJECT_ID":"2025-088T","EPOCH":"2026-03-04T08:41:10.281984","MEAN_MOTION":14.80003574,"ECCENTRICITY":6.242e-5,"INCLINATION":51.8989,"RA_OF_ASC_NODE":116.6123,"ARG_OF_PERICENTER":77.0276,"MEAN_ANOMALY":283.0756,"EPHEMERIS_TYPE":0,"CLASSIFICATION_TYPE":"U","NORAD_CAT_ID":63741,"ELEMENT_SET_NO":999,"REV_AT_EPOCH":4727,"BSTAR":0.00051058241,"MEAN_MOTION_DOT":3.68e-5,"MEAN_MOTION_DDOT":0},{"OBJECT_NAME":"KUIPER-00029","OBJECT_ID":"2025-088U","EPOCH":"2026-03-06T06:17:30.182496","MEAN_MOTION":14.8352879,"ECCENTRICITY":0.00011326,"INCLINATION":51.9,"RA_OF_ASC_NODE":105.8248,"ARG_OF_PERICENTER":154.3357,"MEAN_ANOMALY":205.7663,"EPHEMERIS_TYPE":0,"CLASSIFICATION_TYPE":"U","NORAD_CAT_ID":63742,"ELEMENT_SET_NO":999,"REV_AT_EPOCH":4711,"BSTAR":-0.002300341,"MEAN_MOTION_DOT":-0.0001929,"MEAN_MOTION_DDOT":0},{"OBJECT_NAME":"KUIPER-00030","OBJECT_ID":"2025-088V","EPOCH":"2026-03-05T14:13:07.391424","MEAN_MOTION":14.79924777,"ECCENTRICITY":0.0010687,"INCLINATION":51.8994,"RA_OF_ASC_NODE":128.6615,"ARG_OF_PERICENTER":57.377,"MEAN_ANOMALY":302.8223,"EPHEMERIS_TYPE":0,"CLASSIFICATION_TYPE":"U","NORAD_CAT_ID":63743,"ELEMENT_SET_NO":999,"REV_AT_EPOCH":4702,"BSTAR":0.00046727,"MEAN_MOTION_DOT":3.343e-5,"MEAN_MOTION_DDOT":0},{"OBJECT_NAME":"KUIPER-00031","OBJECT_ID":"2025-088W","EPOCH":"2026-03-06T06:27:38.633760","MEAN_MOTION":14.83626597,"ECCENTRICITY":0.00021575,"INCLINATION":51.8994,"RA_OF_ASC_NODE":110.9045,"ARG_OF_PERICENTER":134.846,"MEAN_ANOMALY":225.2679,"EPHEMERIS_TYPE":0,"CLASSIFICATION_TYPE":"U","NORAD_CAT_ID":63744,"ELEMENT_SET_NO":999,"REV_AT_EPOCH":4704,"BSTAR":0.00067127795,"MEAN_MOTION_DOT":5.367e-5,"MEAN_MOTION_DDOT":0},{"OBJECT_NAME":"KUIPER-00032","OBJECT_ID":"2025-088X","EPOCH":"2026-03-06T03:47:17.060640","MEAN_MOTION":15.37179008,"ECCENTRICITY":0.00053426,"INCLINATION":51.8705,"RA_OF_ASC_NODE":41.3011,"ARG_OF_PERICENTER":100.2322,"MEAN_ANOMALY":259.9267,"EPHEMERIS_TYPE":0,"CLASSIFICATION_TYPE":"U","NORAD_CAT_ID":63745,"ELEMENT_SET_NO":999,"REV_AT_EPOCH":4900,"BSTAR":0.00049334496,"MEAN_MOTION_DOT":0.00017898,"MEAN_MOTION_DDOT":0},{"OBJECT_NAME":"KUIPER-00033","OBJECT_ID":"2025-088Y","EPOCH":"2026-03-06T04:27:42.155712","MEAN_MOTION":14.83426261,"ECCENTRICITY":8.307e-5,"INCLINATION":51.8996,"RA_OF_ASC_NODE":141.4363,"ARG_OF_PERICENTER":43.6474,"MEAN_ANOMALY":316.4555,"EPHEMERIS_TYPE":0,"CLASSIFICATION_TYPE":"U","NORAD_CAT_ID":63746,"ELEMENT_SET_NO":999,"REV_AT_EPOCH":4709,"BSTAR":0.00074705411,"MEAN_MOTION_DOT":5.97e-5,"MEAN_MOTION_DDOT":0},{"OBJECT_NAME":"KUIPER-00034","OBJECT_ID":"2025-088Z","EPOCH":"2026-03-06T06:37:11.372448","MEAN_MOTION":14.83517448,"ECCENTRICITY":0.00013149,"INCLINATION":51.9016,"RA_OF_ASC_NODE":103.3735,"ARG_OF_PERICENTER":339.9494,"MEAN_ANOMALY":20.1418,"EPHEMERIS_TYPE":0,"CLASSIFICATION_TYPE":"U","NORAD_CAT_ID":63747,"ELEMENT_SET_NO":999,"REV_AT_EPOCH":4731,"BSTAR":2.7356549e-5,"MEAN_MOTION_DOT":-1.0e-8,"MEAN_MOTION_DDOT":0},{"OBJECT_NAME":"KUIPER-00035","OBJECT_ID":"2025-088AA","EPOCH":"2026-03-05T13:45:12.067776","MEAN_MOTION":14.83254806,"ECCENTRICITY":0.0003941,"INCLINATION":51.8997,"RA_OF_ASC_NODE":132.1676,"ARG_OF_PERICENTER":62.6398,"MEAN_ANOMALY":297.4966,"EPHEMERIS_TYPE":0,"CLASSIFICATION_TYPE":"U","NORAD_CAT_ID":63748,"ELEMENT_SET_NO":999,"REV_AT_EPOCH":4690,"BSTAR":0.0010506,"MEAN_MOTION_DOT":8.456e-5,"MEAN_MOTION_DDOT":0},{"OBJECT_NAME":"KUIPER-00037","OBJECT_ID":"2025-088AB","EPOCH":"2026-03-05T04:25:47.184960","MEAN_MOTION":14.79937985,"ECCENTRICITY":8.867e-5,"INCLINATION":51.8999,"RA_OF_ASC_NODE":132.984,"ARG_OF_PERICENTER":54.3505,"MEAN_ANOMALY":305.754,"EPHEMERIS_TYPE":0,"CLASSIFICATION_TYPE":"U","NORAD_CAT_ID":63749,"ELEMENT_SET_NO":999,"REV_AT_EPOCH":4764,"BSTAR":0.0017319361,"MEAN_MOTION_DOT":0.00013009,"MEAN_MOTION_DDOT":0},{"OBJECT_NAME":"KUIPER-00038","OBJECT_ID":"2025-088AC","EPOCH":"2026-03-06T06:44:54.448800","MEAN_MOTION":14.79969861,"ECCENTRICITY":6.272e-5,"INCLINATION":51.9018,"RA_OF_ASC_NODE":113.1626,"ARG_OF_PERICENTER":97.554,"MEAN_ANOMALY":262.5494,"EPHEMERIS_TYPE":0,"CLASSIFICATION_TYPE":"U","NORAD_CAT_ID":63750,"ELEMENT_SET_NO":999,"REV_AT_EPOCH":4701,"BSTAR":0.00031032139,"MEAN_MOTION_DOT":2.147e-5,"MEAN_MOTION_DDOT":0},{"OBJECT_NAME":"KUIPER-00039","OBJECT_ID":"2025-134A","EPOCH":"2026-03-05T21:59:24.490752","MEAN_MOTION":14.79938886,"ECCENTRICITY":0.00010369,"INCLINATION":51.9001,"RA_OF_ASC_NODE":249.7787,"ARG_OF_PERICENTER":67.2597,"MEAN_ANOMALY":292.8475,"EPHEMERIS_TYPE":0,"CLASSIFICATION_TYPE":"U","NORAD_CAT_ID":64500,"ELEMENT_SET_NO":999,"REV_AT_EPOCH":3951,"BSTAR":0.00053831038,"MEAN_MOTION_DOT":3.885e-5,"MEAN_MOTION_DDOT":0},{"OBJECT_NAME":"KUIPER-00040","OBJECT_ID":"2025-134B","EPOCH":"2026-03-05T16:49:31.254816","MEAN_MOTION":14.79992018,"ECCENTRICITY":0.00134009,"INCLINATION":51.8974,"RA_OF_ASC_NODE":261.8666,"ARG_OF_PERICENTER":252.3263,"MEAN_ANOMALY":107.6236,"EPHEMERIS_TYPE":0,"CLASSIFICATION_TYPE":"U","NORAD_CAT_ID":64501,"ELEMENT_SET_NO":999,"REV_AT_EPOCH":3932,"BSTAR":0.001025427,"MEAN_MOTION_DOT":7.624e-5,"MEAN_MOTION_DDOT":0},{"OBJECT_NAME":"KUIPER-00041","OBJECT_ID":"2025-134C","EPOCH":"2026-03-06T05:56:13.839360","MEAN_MOTION":14.78717324,"ECCENTRICITY":0.00072132,"INCLINATION":51.8984,"RA_OF_ASC_NODE":260.8785,"ARG_OF_PERICENTER":254.0812,"MEAN_ANOMALY":105.9356,"EPHEMERIS_TYPE":0,"CLASSIFICATION_TYPE":"U","NORAD_CAT_ID":64502,"ELEMENT_SET_NO":999,"REV_AT_EPOCH":3938,"BSTAR":0.00062516473,"MEAN_MOTION_DOT":4.415e-5,"MEAN_MOTION_DDOT":0},{"OBJECT_NAME":"KUIPER-00042","OBJECT_ID":"2025-134D","EPOCH":"2026-03-05T16:53:26.361312","MEAN_MOTION":14.79958365,"ECCENTRICITY":0.00071451,"INCLINATION":51.8979,"RA_OF_ASC_NODE":259.2177,"ARG_OF_PERICENTER":268.3726,"MEAN_ANOMALY":91.6418,"EPHEMERIS_TYPE":0,"CLASSIFICATION_TYPE":"U","NORAD_CAT_ID":64503,"ELEMENT_SET_NO":999,"REV_AT_EPOCH":3936,"BSTAR":0.0009477287,"MEAN_MOTION_DOT":7.017e-5,"MEAN_MOTION_DDOT":0},{"OBJECT_NAME":"KUIPER-00043","OBJECT_ID":"2025-134E","EPOCH":"2026-03-05T21:23:43.064160","MEAN_MOTION":14.83803217,"ECCENTRICITY":9.947e-5,"INCLINATION":51.9013,"RA_OF_ASC_NODE":249.9165,"ARG_OF_PERICENTER":325.355,"MEAN_ANOMALY":34.7349,"EPHEMERIS_TYPE":0,"CLASSIFICATION_TYPE":"U","NORAD_CAT_ID":64504,"ELEMENT_SET_NO":999,"REV_AT_EPOCH":3951,"BSTAR":0.00058232696,"MEAN_MOTION_DOT":4.646e-5,"MEAN_MOTION_DDOT":0},{"OBJECT_NAME":"KUIPER-00044","OBJECT_ID":"2025-134F","EPOCH":"2026-03-05T16:45:41.660640","MEAN_MOTION":14.79890125,"ECCENTRICITY":0.00077776,"INCLINATION":51.9002,"RA_OF_ASC_NODE":264.2405,"ARG_OF_PERICENTER":261.4076,"MEAN_ANOMALY":98.6006,"EPHEMERIS_TYPE":0,"CLASSIFICATION_TYPE":"U","NORAD_CAT_ID":64505,"ELEMENT_SET_NO":999,"REV_AT_EPOCH":3929,"BSTAR":0.00030903138,"MEAN_MOTION_DOT":2.132e-5,"MEAN_MOTION_DDOT":0}]
