KUIPER-00028            
1 63741U 25088T   26063.36192456  .00003680  00000+0  51058-3 0  9995
2 63741  51.8989 116.6123 0000624  77.0276 283.0756 14.80003574 47277
KUIPER-00029            
1 63742U 25088U   26065.26215489 -.00019290  00000+0 -23003-2 0  9993
2 63742  51.9000 105.8248 0001132 154.3357 205.7663 14.83528790 47111
KUIPER-00030            
1 63743U 25088V   26064.59244666  .00003343  00000+0  46727-3 0  9997
2 63743  51.8994 128.6615 0010687  57.3770 302.8223 14.79924777 47021
KUIPER-00031            
1 63744U 25088W   26065.26919715  .00005367  00000+0  67128-3 0  9993
2 63744  51.8994 110.9045 0002157 134.8460 225.2679 14.83626597 47042
KUIPER-00032            
1 63745U 25088X   26065.15783635  .00017898  00000+0  49334-3 0  9993
2 63745  51.8705  41.3011 0005342 100.2322 259.9267 15.37179008 49001
KUIPER-00033            
1 63746U 25088Y   26065.18590458  .00005970  00000+0  74705-3 0  9994
2 63746  51.8996 141.4363 0000830  43.6474 316.4555 14.83426261 47093
KUIPER-00034            
1 63747U 25088Z   26065.27582607 -.00000001  00000+0  27357-4 0  9995
2 63747  51.9016 103.3735 0001314 339.9494  20.1418 14.83517448 47319
KUIPER-00035            
1 63748U 25088AA  26064.57305634  .00008456  00000+0  10506-2 0  9998
2 63748  51.8997 132.1676 0003941  62.6398 297.4966 14.83254806 46909
KUIPER-00037            
1 63749U 25088AB  26064.18457390  .00013009  00000+0  17319-2 0  9992
2 63749  51.8999 132.9840 0000886  54.3505 305.7540 14.79937985 47640
KUIPER-00038            
1 63750U 25088AC  26065.28118575  .00002147  00000+0  31032-3 0  9995
2 63750  51.9018 113.1626 0000627  97.5540 262.5494 14.79969861 47016
KUIPER-00039            
1 64500U 25134A   26064.91625568  .00003885  00000+0  53831-3 0  9996
2 64500  51.9001 249.7787 0001036  67.2597 292.8475 14.79938886 39511
KUIPER-00040            
1 64501U 25134B   26064.70105619  .00007624  00000+0  10254-2 0  9990
2 64501  51.8974 261.8666 0013400 252.3263 107.6236 14.79992018 39320
KUIPER-00041            
1 64502U 25134C   26065.24738240  .00004415  00000+0  62516-3 0  9997
2 64502  51.8984 260.8785 0007213 254.0812 105.9356 14.78717324 39381
KUIPER-00042            
1 64503U 25134D   26064.70377733  .00007017  00000+0  94773-3 0  9995
2 64503  51.8979 259.2177 0007145 268.3726  91.6418 14.79958365 39360
KUIPER-00043            
1 64504U 25134E   26064.89147065  .00004646  00000+0  58233-3 0  9995
2 64504  51.9013 249.9165 0000994 325.3550  34.7349 14.83803217 39516
KUIPER-00044            
1 64505U 25134F   26064.69839885  .00002132  00000+0  30903-3 0  9994
2 64505  51.9002 264.2405 0007777 261.4076  98.6006 14.79890125 39294
